GALAXY 25 (G-25)        
1 24812U 97026A   22230.15189860 -.00000014  00000+0  00000+0 0  9992
2 24812   3.8397  83.0506 0003799  35.4083 328.8240  1.00271550 92348
INTELSAT 5 (IS-5)       
1 24916U 97046A   22229.51707049 -.00000074  00000+0  00000+0 0  9998
2 24916   7.3540  60.6316 0003593 113.8299 143.7084  1.00272493 91586
GALAXY 11 (G-11)        
1 26038U 99071A   22229.41171824 -.00000174  00000+0  00000+0 0  9991
2 26038   3.1556  86.9796 0000479 182.3261 111.5607  1.00272288 83045
INTELSAT 9 (IS-9)       
1 26451U 00043A   22229.36940104 -.00000299  00000+0  00000+0 0  9998
2 26451   7.3403  60.8152 0002369  99.5111 248.3881  1.00272223 30102
INTELSAT 1R (IS-1R)     
1 26608U 00072A   22229.34773740 -.00000150  00000+0  00000+0 0  9998
2 26608   4.6138  80.0817 0000613 299.3549 228.5405  1.00271936 27285
INTELSAT 10 (IS-10)     
1 26766U 01019A   22229.53084302  .00000022  00000+0  00000+0 0  9992
2 26766   5.7195  72.8560 0002436  64.3249 197.5881  1.00272757 31584
INTELSAT 901 (IS-901)   
1 26824U 01024A   22230.25605030 -.00000210  00000+0  00000+0 0  9991
2 26824   0.0476 274.8750 0001044 258.2406 218.1300  1.00272167 77566
INTELSAT 902 (IS-902)   
1 26900U 01039A   22230.27227031 -.00000292  00000+0  00000+0 0  9995
2 26900   2.5562  88.3480 0002647  56.0070 230.1899  1.00271843 76749
INTELSAT 904 (IS-904)   
1 27380U 02007A   22229.84586675 -.00000225  00000+0  00000+0 0  9993
2 27380   3.3878  85.3104 0002957  72.1601  83.6923  1.00270016 75057
DIRECTV 5 (TEMPO 1)     
1 27426U 02023A   22229.59027451 -.00000066  00000+0  00000+0 0  9999
2 27426   1.2800  92.5436 0003226  54.5927 281.1697  1.00271812 74083
INTELSAT 905 (IS-905)   
1 27438U 02027A   22230.13384812 -.00000194  00000+0  00000+0 0  9997
2 27438   3.2103  86.0478 0002645  65.9655 198.1495  1.00271912 73944
GALAXY 3C (G-3C)        
1 27445U 02030A   22229.47731367 -.00000162  00000+0  00000+0 0  9990
2 27445   0.1267  82.9075 0000284 251.9048  67.9860  1.00271627 32450
INTELSAT 906 (IS-906)   
1 27513U 02041A   22228.63078432  .00000001  00000+0  00000+0 0  9993
2 27513   2.2209  89.8377 0003173  61.5167 104.8837  1.00273726 72982
GALAXY 12 (G-12)        
1 27715U 03013B   22229.56881733  .00000047  00000+0  00000+0 0  9996
2 27715   3.4199  84.9503 0001866  80.8136 235.9184  1.00271544 38058
GALAXY 23 (G-23)        
1 27854U 03034A   22230.25814384  .00000005  00000+0  00000+0 0  9993
2 27854   0.0696 270.4167 0002959 244.8211 143.3025  1.00270221 74513
GALAXY 13 (HORIZONS-1)  
1 27954U 03044A   22229.57028111  .00000039  00000+0  00000+0 0  9990
2 27954   0.0203  98.1701 0000762 262.8570  43.1752  1.00270306 32539
INTELSAT 10-02          
1 28358U 04022A   22229.85153477 -.00000020  00000+0  00000+0 0  9992
2 28358   0.0438 277.9474 0000706 273.3034  80.4989  1.00271409 66596
XM-3 (RHYTHM)           
1 28626U 05008A   22229.34641106 -.00000215  00000+0  00000+0 0  9996
2 28626   0.0198 207.4724 0001626 327.8589 189.9609  1.00270627 28587
DIRECTV 8               
1 28659U 05019A   22229.58032163 -.00000008  00000+0  00000+0 0  9997
2 28659   0.0146 145.5046 0002652   9.7389 260.5477  1.00272954 63032
GALAXY 28 (G-28)        
1 28702U 05022A   22230.27271642 -.00000193  00000+0  00000+0 0  9990
2 28702   0.0131  11.1167 0003112 126.9819 197.6908  1.00269082 62798
GALAXY 14 (G-14)        
1 28790U 05030A   22230.18799272  .00000147  00000+0  00000+0 0  9998
2 28790   1.4150  91.6322 0001784  64.7257 270.7150  1.00272873 62272
GALAXY 15 (G-15)        
1 28884U 05041A   22230.21667661  .00000071  00000+0  00000+0 0  9990
2 28884   0.0355 280.6999 0001723 232.0496 118.8371  1.00274435 61571
SPACEWAY 2              
1 28903U 05046B   22230.21274354  .00000094  00000+0  00000+0 0  9995
2 28903   2.0441  87.3286 0000272 134.2978  42.6020  1.00272076 61460
GALAXY 16 (G-16)        
1 29236U 06023A   22229.46951572 -.00000136  00000+0  00000+0 0  9998
2 29236   0.0563 274.3429 0003022 244.5918 236.8810  1.00270452 58933
DIRECTV 9S              
1 29494U 06043A   22229.38920193 -.00000123  00000+0  00000+0 0  9998
2 29494   0.0199 113.8533 0003002  37.2312 213.5523  1.00272175 37349
XM-4 (BLUES)            
1 29520U 06049A   22229.29522347 -.00000215  00000+0  00000+0 0  9995
2 29520   0.0639 293.0314 0001496  28.3438  25.4212  1.00271891 37430
GALAXY 17 (G-17)        
1 31307U 07016B   22229.37275142 -.00000184  00000+0  00000+0 0  9998
2 31307   0.0070 294.1815 0002641 225.2586 209.4555  1.00270997 55764
DIRECTV 10              
1 31862U 07032A   22229.33609258 -.00000113  00000+0  00000+0 0  9999
2 31862   0.0071 221.2568 0000305 207.2224 275.3851  1.00270335 31559
SPACEWAY 3              
1 32018U 07036A   22230.20651774 -.00000160  00000+0  00000+0 0  9997
2 32018   0.3796  90.1122 0000219  74.2854 141.5308  1.00271722 55091
INTELSAT 11 (IS-11)     
1 32253U 07044B   22229.39382076 -.00000278  00000+0  00000+0 0  9991
2 32253   0.0490  56.4824 0000588  88.0152 280.0021  1.00270585 54453
HORIZONS-2              
1 32388U 07063B   22230.24424237 -.00000119  00000+0  00000+0 0  9997
2 32388   0.0168  87.1854 0003766  14.4350 311.3768  0.99713628 53858
DIRECTV 11              
1 32729U 08013A   22229.33848823 -.00000135  00000+0  00000+0 0  9999
2 32729   0.0056 214.1361 0000235 347.5958 146.6065  1.00272012 31552
GALAXY 18 (G-18)        
1 32951U 08024A   22230.25770785  .00000017  00000+0  00000+0 0  9990
2 32951   0.0132 103.2748 0002963  51.5082 141.5781  1.00273707 52050
INTELSAT 25 (IS-25)     
1 33153U 08034A   22229.06682083 -.00000235  00000+0  00000+0 0  9999
2 33153   0.0223 120.6698 0003253  36.3642 160.8980  1.00269835 51656
GALAXY 19 (G-19)        
1 33376U 08045A   22229.60703644 -.00000148  00000+0  00000+0 0  9998
2 33376   0.0570 278.0557 0002947 234.6143 294.8116  1.00271674 50863
FM-5                    
1 35493U 09034A   22229.34641111 -.00000210  00000+0  00000+0 0  9990
2 35493   0.0161  97.6173 0000355 234.4251  32.1989  1.00270685 32603
INTELSAT 14 (IS-14)     
1 36097U 09064A   22229.38708154 -.00000283  00000+0  00000+0 0  9999
2 36097   0.0221 100.9420 0002566  55.6476 263.5040  1.00272271 46563
INTELSAT 15 (IS-15)     
1 36106U 09067A   22229.69424492 -.00000194  00000+0  00000+0 0  9998
2 36106   0.0146  78.0652 0002480  83.0277 140.0144  1.00271890 46561
DIRECTV 12              
1 36131U 09075A   22229.33609300 -.00000113  00000+0  00000+0 0  9990
2 36131   0.0392 277.8678 0000277 306.3845 119.7048  1.00271810 32522
INTELSAT 16 (IS-16)     
1 36397U 10006A   22229.41743288 -.00000254  00000+0  00000+0 0  9999
2 36397   0.0174  87.9963 0002209  64.0138 247.8203  1.00271764 45619
XM-5                    
1 37185U 10053A   22229.58524948 -.00000032  00000+0  00000+0 0  9999
2 37185   0.0176 109.5573 0000532 236.5742  75.2774  1.00270398 43446
INTELSAT 17 (IS-17)     
1 37238U 10065B   22228.82432023 -.00000014  00000+0  00000+0 0  9999
2 37238   0.0281 196.0855 0002461 310.5953 181.2498  1.00272937 39195
INTELSAT NEW DAWN       
1 37392U 11016A   22226.99247046  .00000139  00000+0  00000+0 0  9999
2 37392   0.0173 134.5313 0001810 338.3838 240.5317  1.00262184 39225
INTELSAT 18 (IS-18)     
1 37834U 11056A   22229.53480833  .00000043  00000+0  00000+0 0  9994
2 37834   0.0263   6.9601 0002241 147.1295 184.3064  1.00271974 39805
INTELSAT 22 (IS-22)     
1 38098U 12011A   22230.04077094 -.00000067  00000+0  00000+0 0  9995
2 38098   0.0192  97.4580 0002853  63.2308 252.4660  1.00271998 38020
INTELSAT 19 (IS-19)     
1 38356U 12030A   22230.28067036 -.00000064  00000+0  00000+0 0  9991
2 38356   0.0111 128.7732 0003140  23.2288  81.6511  1.00271735 37483
INTELSAT 20 (IS-20)     
1 38740U 12043A   22226.88732699 -.00000044  00000+0  00000+0 0  9995
2 38740   0.0126 140.8785 0001970  24.5854 185.7378  1.00283917 36684
INTELSAT 21 (IS-21)     
1 38749U 12045A   22229.33475877 -.00000295  00000+0  00000+0 0  9999
2 38749   0.0081 288.7698 0002285 231.1498 228.2695  1.00270848 36491
INTELSAT 23 (IS-23)     
1 38867U 12057A   22229.35677434 -.00000295  00000+0  00000+0 0  9998
2 38867   0.0086 148.2869 0000874   7.8486 245.0115  1.00259516 35902
FM-6                    
1 39360U 13058A   22229.58367903 -.00000026  00000+0  00000+0 0  9993
2 39360   0.0509 268.7238 0000477 120.3032  30.8582  1.00270341 32023
INTELSAT 30 (IS-30)     
1 40271U 14062A   22229.27717032 -.00000161  00000+0  00000+0 0  9990
2 40271   0.0103 128.6542 0001840 313.5319 248.1626  1.00271061 28542
DIRECTV 14              
1 40333U 14078B   22229.60367990 -.00000134  00000+0  00000+0 0  9997
2 40333   0.0162 101.0353 0000747 121.4084 221.6029  1.00270729 28027
DIRECTV 15              
1 40663U 15026A   22229.60042213 -.00000111  00000+0  00000+0 0  9990
2 40663   0.0123 106.6693 0000346 285.3811  47.1669  1.00269378 26422
SKY MEXICO-1            
1 40664U 15026B   22230.21585149 -.00000243  00000+0  00000+0 0  9996
2 40664   0.0060 293.1355 0001962 227.7483 164.6090  1.00273264 26501
INTELSAT 34 (IS-34)     
1 40874U 15039A   22229.29750198 -.00000295  00000+0  00000+0 0  9994
2 40874   0.0254 324.7166 0000592  74.3022 338.2462  1.00270987 25581
INTELSAT 31 (IS-31)     
1 41581U 16035A   22229.34088395 -.00000160  00000+0  00000+0 0  9997
2 41581   0.0330 246.7945 0001189 348.8246 117.7275  1.00271179 22651
INTELSAT 36 (IS-36)     
1 41747U 16053A   22225.70393373 -.00000043  00000+0  00000+0 0  9992
2 41747   0.0149  65.9314 0002339 297.1904 280.8801  1.00268731 21879
INTELSAT 33E (IS-33E)   
1 41748U 16053B   22225.77395564  .00000031  00000+0  00000+0 0  9990
2 41748   0.0158  74.6229 0001733  69.4686 156.6780  1.00271477 22177
INTELSAT 32E (IS-32E)   
1 41945U 17007B   22227.39300220 -.00000284  00000+0  00000+0 0  9995
2 41945   0.0203  99.2781 0001034 325.1615 357.6322  1.00270100 20176
INTELSAT 35E (IS-35E)   
1 42818U 17041A   22229.45621833 -.00000248  00000+0  00000+0 0  9998
2 42818   0.0139 112.3626 0001760  43.4297 299.7227  1.00270769 18775
INTELSAT 37E (IS-37E)   
1 42950U 17059A   22229.84813396 -.00000150  00000+0  00000+0 0  9996
2 42950   0.0120 111.1340 0002533  41.0449 101.3338  1.00271748 18010
AZERSPACE 2 (IS-38)     
1 43632U 18074A   22230.22202139  .00000128  00000+0  00000+0 0  9997
2 43632   0.0144 108.8006 0001509  54.6961 288.0770  1.00273101 14415
HORIZONS-3E             
1 43633U 18074B   22228.57727222 -.00000043  00000+0  00000+0 0  9995
2 43633   0.0156 237.0810 0002113  63.2828  41.3694  1.00269254 14270
AT&T T-16               
1 44333U 19034A   22230.24900697 -.00000123  00000+0  00000+0 0  9995
2 44333   0.0089 151.1553 0000447 233.1241 291.0755  1.00270477 11603
INTELSAT 39 (IS-39)     
1 44476U 19049B   22228.78452427  .00000022  00000+0  00000+0 0  9995
2 44476   0.0196 113.0955 0000960 192.7875   3.6119  1.00270288 11102
GALAXY 30 (G-30)        
1 46114U 20056C   22229.57388316  .00000027  00000+0  00000+0 0  9994
2 46114   0.0159 109.7811 0001890  41.7782 255.9467  1.00272754  7257
